F3306   16.6   0.15 K145N  99.05226  272.44219  226.70670   26.97531  0.5228639  0.24148341   2.5539429  0 MPO251303   386   6 1993-2013 0.49 M-v 38h MPCLINUX   1804 (153306) 2001 JL1           20130109
F3311   17.2   0.15 K145N  77.29422  218.46008  142.40990   28.41347  0.6431881  0.24849286   2.5056867  1 MPO285012   155   6 1989-2014 0.50 M-h 3Eh MPCLINUX   9803 (153311) 2001 MG1           20140121
F3315   19.2   0.15 K145N  47.55031  288.36929  112.58257   34.69852  0.4496960  0.71601802   1.2374284  2 MPO234077    53   6 2001-2012 0.53 M-h 3Eh MPCLINUX   0803 (153315) 2001 NH6           20120607
F3349   18.4   0.15 K145N 145.68359  291.11439  283.89337   10.53671  0.6389850  0.40854000   1.7987867  1 MPO276390   261   5 2001-2013 0.39 M-h 3Eh MPCLINUX   0803 (153349) 2001 PJ9           20130831
F3415   17.0   0.15 K145N 161.00204  244.31130  317.69134   50.20832  0.2137674  1.17092439   0.8914907  2 MPO241133   235   7 1996-2012 0.42 M-h 3Eh MPCLINUX   1802 (153415) 2001 QP153         20120921
F3460   19.7   0.15 K145N 239.38144   30.34590  211.51218   10.09197  0.5810305  0.58637728   1.4136806  2 MPO251304    86   5 2001-2013 0.47 M-h 3Eh MPCLINUX   0803 (153460) 2001 RN            20130112
F3591   16.9   0.15 K145N  86.28778  172.82855  325.83539    6.68576  0.4784067  0.35190317   1.9869515  0 MPO236932   698  10 1990-2010 0.43 M-h 3Eh MPCLINUX   1804 (153591) 2001 SN263         20101209
F3792   18.1   0.15 K145N   3.71402  244.14848  276.35035   10.62027  0.7419243  0.32386152   2.1000509  1 MPO280805    77   8 2001-2013 0.45 M-h 3Eh MPCLINUX   1803 (153792) 2001 VH75          20131129
F3814   18.3   0.15 K145N 238.21771   44.41827  277.61843    1.92170  0.4675015  0.44013441   1.7116403  0 MPO287642   418   8 1996-2014 0.43 M-h 3Eh MPCLINUX   8803 (153814) 2001 WN5           20140228
F3842   16.8   0.15 K145N 297.02045  218.78119  140.35791    9.06243  0.5716485  0.21718915   2.7410101  0 MPO217457   264   6 2000-2011 0.53 M-v 38h MPCLINUX   1804 (153842) 2001 XT30          20110110
F3951   18.6   0.15 K145N 315.19891  214.99721  314.47923   15.47324  0.3422229  0.39606529   1.8363616  1 MPO273284   358   8 2001-2013 0.43 M-v 38h MPCLINUX   0804 (153951) 2002 AC3           20131007
F3953   16.7   0.15 K145N 116.98574    9.68506    2.62803   31.08293  0.8087841  0.41741501   1.7731985  2 MPO287643   150  10 1975-2014 0.43 M-h 3Eh MPCLINUX   1803 (153953) 2002 AD9           20140312
F3957   17.6   0.15 K145N  11.69815   73.16985   89.79980   46.54439  0.7585557  0.24446776   2.5331155  1 MPO285016    83   6 2002-2014 0.56 M-h 3Eh MPCLINUX   1803 (153957) 2002 AB29          20140114
F3958   18.3   0.15 K145N 282.02286  197.83111  144.41193    4.64479  0.4516752  0.44347066   1.7030450  0 MPO254145   610   9 1983-2013 0.51 M-v 3Eh MPCW       8803 (153958) 2002 AM31          20130120
F4007   17.9   0.15 K145N 301.53940   23.67364  214.29578    2.72352  0.3464039  0.40191770   1.8184916  0 MPO287643   611   8 1985-2014 0.46 M-v 38h MPCLINUX   1804 (154007) 2002 BY            20140224
F4019   22.0   0.15 K145N 330.50801   80.78832  142.90265    4.97083  0.3602007  0.64566448   1.3257596  1 MPO116959    63   4 2002-2005 0.53 M-v 3Eh MPCW       C803 (154019) 2002 CZ9           20050702
F4020   19.1   0.15 K145N 209.87830  222.08155  145.41951   12.13252  0.5896925  0.51506717   1.5413223  2 MPO229757    52   7 2001-2008 0.44 M-h 3Eh MPCLINUX   4803 (154020) 2002 CA10          20080306
F4029   16.5   0.15 K145N 169.64593  319.34847  346.19955   44.16723  0.4626098  0.37915822   1.8905539  1 MPO224072   334   7 2002-2012 0.52 M-h 3Eh MPCLINUX   1804 (154029) 2002 CY46          20120211
F4035   17.4   0.15 K145N 290.70572  347.09494   13.11327   49.04949  0.5321752  0.74042505   1.2100834  2 MPO280806   109   8 2002-2014 0.45 M-h 3Eh MPCLINUX   1803 (154035) 2002 CV59          20140111
F4144   17.3   0.15 K145N 246.30248  126.34944  172.60404   23.61952  0.2963478  0.39688025   1.8338468  1 MPO285016   162   7 2002-2014 0.61 M-v 38h MPCLINUX   1804 (154144) 2002 FA5           20140130
F4229   16.6   0.15 K145N 312.89073  341.47036   67.73100   10.07508  0.7186424  0.39125023   1.8513974  1 MPO264309   136  11 2000-2013 0.48 M-h 3Eh MPCLINUX   1803 (154229) 2002 JN97          20130509
F4244   17.5   0.15 K145N 135.90083   96.46324  214.56213    3.23449  0.5480120  0.28055464   2.3109528  0 MPO158389   227   6 1995-2009 0.43 M-v 3Eh MPCMEL     1804 (154244) 2002 KL6           20090521
F4268   18.0   0.15 K145N   5.69485  357.47988  132.70448   14.57181  0.4650253  0.53061939   1.5110563  1 MPO270719   124   6 2002-2013 0.44 M-h 3Eh MPCLINUX   1803 (154268) 2002 RM129         20130829
F4269   17.9   0.15 K145N 277.91993  217.19013   10.92587   14.42792  0.4860944  0.38484402   1.8718867  1 MPO276395   181   7 2002-2013 0.56 M-h 3Eh MPCLINUX   9803 (154269) 2002 SM            20131102
F4275   20.2   0.15 K145N  38.09430  258.07199  247.87958   11.59374  0.4906406  0.87477521   1.0827755  1 MPO266502   187   6 2002-2013 0.51 M-h 3Eh MPCLINUX   8803 (154275) 2002 SR41          20130717
F4276   17.6   0.15 K145N  45.05996   99.35184   34.32992    8.74381  0.6894816  0.44295913   1.7043559  0 MPO280807   601   4 2002-2013 0.52 M-v 3Eh MPCW       9803 (154276) 2002 SY50          20131204
F4278   16.5   0.15 K145N 201.05517  322.52995  196.34686   29.70776  0.5914721  0.40668797   1.8042436  1 MPO241136   219   9 1991-2012 0.42 M-h 3Eh MPCLINUX   1803 (154278) 2002 TB9           20121023
F4300   19.2   0.15 K145N 315.99802  184.15543   90.76436    8.30124  0.4724232  0.74135408   1.2090723  2 MPO285016   138   7 2001-2014 0.44 M-h 3Eh MPCLINUX   0803 (154300) 2002 UO            20140124
F4302   17.6   0.15 K145N   9.45117  280.85709  222.85073   28.81733  0.5617825  0.43718485   1.7193303  1 MPO273285   391   7 2002-2013 0.44 M-h 3Eh MPCLINUX   9803 (154302) 2002 UQ3           20131007
F4330   18.1   0.15 K145N  66.11483  215.05609  320.19424    7.16218  0.4085470  0.54931260   1.4765778  1 MPO234081   156   9 1986-2012 0.57 M-h 3Eh MPCLINUX   9803 (154330) 2002 VX94          20120607
F4347   16.0   0.15 K145N 226.29946   24.75429  331.78106   17.80649  0.6919044  0.39186989   1.8494451  1 MPO264310   480   9 1998-2013 0.44 M-h 3Eh MPCLINUX   1803 (154347) 2002 XK4           20130509
F4453   15.3   0.15 K145N 273.88985  356.29412   61.74154   20.70562  0.8328812  0.23633473   2.5909022  1 MPO264310   754   9 2003-2013 0.41 M-h 3Eh MPCLINUX   1803 (154453) 2003 CJ11          20130508
F4555   16.5   0.15 K145N 122.61410  277.10010   53.54841   36.82230  0.5803124  0.76481715   1.1842161  2 MPO285018   444   9 2003-2014 0.47 M-h 3Eh MPCLINUX   1803 (154555) 2003 HA            20140210
F4589   16.4   0.15 K145N   9.40476  300.02212   59.01540    7.17008  0.4565760  0.28421747   2.2910551  1 MPO264310   158   9 2001-2013 0.51 M-v 38h MPCLINUX   1804 (154589) 2003 MX2           20130518
F4590   21.7   0.15 K145N  73.72281  228.92167  152.64975    1.41285  0.4021854  0.84808936   1.1053716  1 MPO224075    87   6 1998-2012 0.50 M-h 3Eh MPCLINUX   8803 (154590) 2003 MA3           20120304
F4631   18.1   0.15 K145N  74.70150  175.98008  357.88044   15.90136  0.4915433  0.50715159   1.5573188  1 MPO235239   103   7 2001-2012 0.47 M-h 3Eh MPCLINUX   1803 (154631) 2003 WO25          20120730
F4652   18.7   0.15 K145N 342.29171  191.29481  159.61992   16.17487  0.4505170  0.90499160   1.0585378  3 MPO232130   231   4 2004-2007 0.54 M-h 3Eh MPCLINUX   4803 (154652) 2004 EP20          20070221
F4656   16.3   0.15 K145N 271.84949  338.23288  339.12258   22.96155  0.6475488  0.28087783   2.3091798  1 MPO287645   252   8 2004-2014 0.47 M-h 3Eh MPCLINUX   1803 (154656) 2004 FE3           20140226
F4658   19.3   0.15 K145N 179.59504  318.57868   29.63132   19.28550  0.4547530  0.85836790   1.0965297  2 MPO285018   107   7 1996-2014 0.60 M-h 3Eh MPCLINUX   0803 (154658) 2004 FA18          20140209
F4715   18.4   0.15 K145N 260.10946  190.52987  182.80710    4.09662  0.4906126  0.47860109   1.6186524  0 MPO254147   535  11 2002-2013 0.41 M-h 3Eh MPCLINUX   0803 (154715) 2004 LB6           20130205
F4807   18.4   0.15 K145N  51.90873   68.57240   15.17099   15.53225  0.3165962  0.54527316   1.4838613  1 MPO270720   213   5 1977-2013 0.48 M-h 3Eh MPCLINUX   0804 (154807) 2004 PP97          20130827
F4988   18.4   0.15 K145N  70.91197  189.90608  133.01168    9.81745  0.6799531  0.53333524   1.5059222  2 MPO254147   156   7 1998-2013 0.43 M-h 3Eh MPCLINUX   0803 (154988) 2004 XN35          20130209
F4991   18.5   0.15 K145N  94.59292  269.41832  245.59715    5.63376  0.3225274  0.44272409   1.7049590  1 MPO236936   158   7 1987-2012 0.44 M-v 38h MPCLINUX   0804 (154991) Vinciguerra        20120811
F4993   17.8   0.15 K145N 359.09025  308.85720  104.22376   10.31876  0.6637010  0.52769909   1.5166260  2 MPO140660    95   5 2002-2008 0.51 M-v 3Eh MPCW       1803 (154993) 2005 EA94          20080708
F5110   17.4   0.15 K145N  76.69959   44.74921  226.21130   30.38412  0.3485151  0.69566532   1.2614474  2 MPO248223   154   7 1998-2012 0.49 M-h 3Eh MPCLINUX   1803 (155110) 2005 TB            20121212
F5140   17.4   0.15 K145N  24.36388  207.57680   19.74402   28.67657  0.8722251  0.68470117   1.2748781  3 MPO280813   328   7 1982-2013 0.46 M-h 3Eh MPCLINUX   5803 (155140) 2005 UD            20131211
F5334   16.9   0.15 K145N 228.69749  275.85114   14.88204    6.61412  0.4086488  0.33944870   2.0352602  1 MPO285021   258   9 1983-2014 0.51 M-v 38h MPCLINUX   1804 (155334) 2006 DZ169         20140124
F5336   18.3   0.15 K145N 271.62176  355.28193   64.38383    4.20609  0.7388940  0.31969035   2.1182784  1 MPO226931   138   6 1999-2012 0.53 M-h 3Eh MPCLINUX   0803 (155336) 2006 GA1           20120328
F5338   20.5   0.15 K145N 335.96330  138.47795  226.74041    2.07903  0.4823884  0.50142394   1.5691556  1 MPO117380   126   4 2002-2007 0.46 M-v 3Eh MPCW       C803 (155338) 2006 MZ1           20070210
